{"type": "FeatureCollection", "features": [ {"type": "Feature", "properties": {"norad_id": 66819, "name": "STARLINK-35989", "group": "last-30-days", "lat": -11.759231731014715, "lon": 169.91804818432135, "alt_km": 415.8356121817733, "timestamp": "2025-12-24T05:51:18.326234+00:00", "meta": {"OBJECT_NAME": "STARLINK-35989", "OBJECT_ID": "2025-278AE", "EPOCH": "2025-12-23T22:00:01.999584", "MEAN_MOTION": 15.50496744, "ECCENTRICITY": 0.00013376, "INCLINATION": 43.0001, "RA_OF_ASC_NODE": 184.741, "ARG_OF_PERICENTER": 279.0819, "MEAN_ANOMALY": 34.6058, "EPHEMERIS_TYPE": 0, "CLASSIFICATION_TYPE": "U", "NORAD_CAT_ID": 66819, "ELEMENT_SET_NO": 999, "REV_AT_EPOCH": 475, "BSTAR": 0.0015437417, "MEAN_MOTION_DOT": 0.00091014, "MEAN_MOTION_DDOT": 0}, "tle": {"line1": "1 66819U 25278AE  25357.91668981  .00091014  00000+0  15437-2 0  9990", "line2": "2 66819  43.0001 184.7410 0001337 279.0819  34.6058 15.50496744  4752"}}, "geometry": {"type": "Point", "coordinates": [169.91804818432135, -11.759231731014715]}}, {"type": "Feature", "properties": {"norad_id": 66820, "name": "KOMPSAT-7", "group": "last-30-days", "lat": 17.269871837458908, "lon": 126.30406803307467, "alt_km": 561.7789273519629, "timestamp": "2025-12-24T05:51:18.326246+00:00", "meta": {"OBJECT_NAME": "KOMPSAT-7", "OBJECT_ID": "2025-279A", "EPOCH": "2025-12-23T22:43:53.065344", "MEAN_MOTION": 15.00665333, "ECCENTRICITY": 0.00111761, "INCLINATION": 97.6456, "RA_OF_ASC_NODE": 303.6187, "ARG_OF_PERICENTER": 225.7448, "MEAN_ANOMALY": 134.286, "EPHEMERIS_TYPE": 0, "CLASSIFICATION_TYPE": "U", "NORAD_CAT_ID": 66820, "ELEMENT_SET_NO": 999, "REV_AT_EPOCH": 333, "BSTAR": 0.00024589623, "MEAN_MOTION_DOT": 3.055e-05, "MEAN_MOTION_DDOT": 0}, "tle": {"line1": "1 66820U 25279A   25357.94714196  .00003055  00000+0  24590-3 0  9995", "line2": "2 66820  97.6456 303.6187 0011176 225.7448 134.2860 15.00665333  3332"}}, "geometry": {"type": "Point", "coordinates": [126.30406803307467, 17.269871837458908]}}, {"type": "Feature", "properties": {"norad_id": 66821, "name": "STARLINK-35966", "group": "last-30-days", "lat": -24.747814062563222, "lon": -3.427733302808614, "alt_km": 413.1993693837894, "timestamp": "2025-12-24T05:51:18.326257+00:00", "meta": {"OBJECT_NAME": "STARLINK-35966", "OBJECT_ID": "2025-280A", "EPOCH": "2025-12-23T21:14:15.615744", "MEAN_MOTION": 15.52561199, "ECCENTRICITY": 0.00033963, "INCLINATION": 70.0004, "RA_OF_ASC_NODE": 167.8901, "ARG_OF_PERICENTER": 273.674, "MEAN_ANOMALY": 86.4059, "EPHEMERIS_TYPE": 0, "CLASSIFICATION_TYPE": "U", "NORAD_CAT_ID": 66821, "ELEMENT_SET_NO": 999, "REV_AT_EPOCH": 466, "BSTAR": 0.0014126911, "MEAN_MOTION_DOT": 0.00087843, "MEAN_MOTION_DDOT": 0}, "tle": {"line1": "1 66821U 25280A   25357.88490296  .00087843  00000+0  14127-2 0  9994", "line2": "2 66821  70.0004 167.8901 0003396 273.6740  86.4059 15.52561199  4660"}}, "geometry": {"type": "Point", "coordinates": [-3.427733302808614, -24.747814062563222]}}, {"type": "Feature", "properties": {"norad_id": 66822, "name": "STARLINK-35958", "group": "last-30-days", "lat": -26.520012512538088, "lon": -2.62258423814781, "alt_km": 413.21854653669925, "timestamp": "2025-12-24T05:51:18.326267+00:00", "meta": {"OBJECT_NAME": "STARLINK-35958", "OBJECT_ID": "2025-280B", "EPOCH": "2025-12-23T21:13:46.024608", "MEAN_MOTION": 15.52560036, "ECCENTRICITY": 0.00035547, "INCLINATION": 70.0001, "RA_OF_ASC_NODE": 167.8894, "ARG_OF_PERICENTER": 274.7149, "MEAN_ANOMALY": 85.3632, "EPHEMERIS_TYPE": 0, "CLASSIFICATION_TYPE": "U", "NORAD_CAT_ID": 66822, "ELEMENT_SET_NO": 999, "REV_AT_EPOCH": 466, "BSTAR": 0.001698819, "MEAN_MOTION_DOT": 0.00105907, "MEAN_MOTION_DDOT": 0}, "tle": {"line1": "1 66822U 25280B   25357.88456047  .00105907  00000+0  16988-2 0  9990", "line2": "2 66822  70.0001 167.8894 0003554 274.7149  85.3632 15.52560036  4664"}}, "geometry": {"type": "Point", "coordinates": [-2.62258423814781, -26.520012512538088]}}, {"type": "Feature", "properties": {"norad_id": 66823, "name": "STARLINK-35957", "group": "last-30-days", "lat": -28.271360314349156, "lon": -1.8012071302674488, "alt_km": 413.3383384140043, "timestamp": "2025-12-24T05:51:18.326277+00:00", "meta": {"OBJECT_NAME": "STARLINK-35957", "OBJECT_ID": "2025-280C", "EPOCH": "2025-12-23T22:46:03.144000", "MEAN_MOTION": 15.52564554, "ECCENTRICITY": 0.00035863, "INCLINATION": 70.0004, "RA_OF_ASC_NODE": 167.7113, "ARG_OF_PERICENTER": 276.0851, "MEAN_ANOMALY": 83.9927, "EPHEMERIS_TYPE": 0, "CLASSIFICATION_TYPE": "U", "NORAD_CAT_ID": 66823, "ELEMENT_SET_NO": 999, "REV_AT_EPOCH": 467, "BSTAR": 0.0017293084, "MEAN_MOTION_DOT": 0.00107856, "MEAN_MOTION_DDOT": 0}, "tle": {"line1": "1 66823U 25280C   25357.94864750  .00107856  00000+0  17293-2 0  9997", "line2": "2 66823  70.0004 167.7113 0003586 276.0851  83.9927 15.52564554  4672"}}, "geometry": {"type": "Point", "coordinates": [-1.8012071302674488, -28.271360314349156]}}, {"type": "Feature", "properties": {"norad_id": 66824, "name": "STARLINK-35896", "group": "last-30-days", "lat": -30.004816350884244, "lon": -0.9583346399078543, "alt_km": 413.5698102484612, "timestamp": "2025-12-24T05:51:18.326288+00:00", "meta": {"OBJECT_NAME": "STARLINK-35896", "OBJECT_ID": "2025-280D", "EPOCH": "2025-12-23T22:45:33.661728", "MEAN_MOTION": 15.52550353, "ECCENTRICITY": 0.00036228, "INCLINATION": 70.0003, "RA_OF_ASC_NODE": 167.7097, "ARG_OF_PERICENTER": 279.4896, "MEAN_ANOMALY": 80.5881, "EPHEMERIS_TYPE": 0, "CLASSIFICATION_TYPE": "U", "NORAD_CAT_ID": 66824, "ELEMENT_SET_NO": 999, "REV_AT_EPOCH": 467, "BSTAR": 0.0014853181, "MEAN_MOTION_DOT": 0.00092387, "MEAN_MOTION_DDOT": 0}, "tle": {"line1": "1 66824U 25280D   25357.94830627  .00092387  00000+0  14853-2 0  9995", "line2": "2 66824  70.0003 167.7097 0003622 279.4896  80.5881 15.52550353  4674"}}, "geometry": {"type": "Point", "coordinates": [-0.9583346399078543, -30.004816350884244]}}, {"type": "Feature", "properties": {"norad_id": 66825, "name": "STARLINK-35476", "group": "last-30-days", "lat": -31.740301324056958, "lon": -0.08156859572701922, "alt_km": 413.6944775142201, "timestamp": "2025-12-24T05:51:18.326298+00:00", "meta": {"OBJECT_NAME": "STARLINK-35476", "OBJECT_ID": "2025-280E", "EPOCH": "2025-12-23T22:45:04.135392", "MEAN_MOTION": 15.5253978, "ECCENTRICITY": 0.00037069, "INCLINATION": 70.0003, "RA_OF_ASC_NODE": 167.7081, "ARG_OF_PERICENTER": 281.2707, "MEAN_ANOMALY": 78.8063, "EPHEMERIS_TYPE": 0, "CLASSIFICATION_TYPE": "U", "NORAD_CAT_ID": 66825, "ELEMENT_SET_NO": 999, "REV_AT_EPOCH": 467, "BSTAR": 0.0013665708, "MEAN_MOTION_DOT": 0.00084875, "MEAN_MOTION_DDOT": 0}, "tle": {"line1": "1 66825U 25280E   25357.94796453  .00084875  00000+0  13666-2 0  9998", "line2": "2 66825  70.0003 167.7081 0003706 281.2707  78.8063 15.52539780  4676"}}, "geometry": {"type": "Point", "coordinates": [-0.08156859572701922, -31.740301324056958]}}, {"type": "Feature", "properties": {"norad_id": 66826, "name": "STARLINK-35898", "group": "last-30-days", "lat": -33.552618330439294, "lon": 0.8737403899508068, "alt_km": 413.4706997719604, "timestamp": "2025-12-24T05:51:18.326308+00:00", "meta": {"OBJECT_NAME": "STARLINK-35898", "OBJECT_ID": "2025-280F", "EPOCH": "2025-12-23T21:11:47.394816", "MEAN_MOTION": 15.52559454, "ECCENTRICITY": 0.00033789, "INCLINATION": 70.0004, "RA_OF_ASC_NODE": 167.8832, "ARG_OF_PERICENTER": 273.7358, "MEAN_ANOMALY": 86.3442, "EPHEMERIS_TYPE": 0, "CLASSIFICATION_TYPE": "U", "NORAD_CAT_ID": 66826, "ELEMENT_SET_NO": 999, "REV_AT_EPOCH": 466, "BSTAR": 0.001278156, "MEAN_MOTION_DOT": 0.00079371, "MEAN_MOTION_DDOT": 0}, "tle": {"line1": "1 66826U 25280F   25357.88318744  .00079371  00000+0  12782-2 0  9998", "line2": "2 66826  70.0004 167.8832 0003378 273.7358  86.3442 15.52559454  4660"}}, "geometry": {"type": "Point", "coordinates": [0.8737403899508068, -33.552618330439294]}}, {"type": "Feature", "properties": {"norad_id": 66827, "name": "STARLINK-35959", "group": "last-30-days", "lat": -35.24460669781674, "lon": 1.8062606638220529, "alt_km": 413.6099917617248, "timestamp": "2025-12-24T05:51:18.326318+00:00", "meta": {"OBJECT_NAME": "STARLINK-35959", "OBJECT_ID": "2025-280G", "EPOCH": "2025-12-23T21:11:17.958336", "MEAN_MOTION": 15.52536347, "ECCENTRICITY": 0.00033549, "INCLINATION": 70.0005, "RA_OF_ASC_NODE": 167.8818, "ARG_OF_PERICENTER": 272.7571, "MEAN_ANOMALY": 87.3232, "EPHEMERIS_TYPE": 0, "CLASSIFICATION_TYPE": "U", "NORAD_CAT_ID": 66827, "ELEMENT_SET_NO": 999, "REV_AT_EPOCH": 466, "BSTAR": 0.00080579389, "MEAN_MOTION_DOT": 0.00049748, "MEAN_MOTION_DDOT": 0}, "tle": {"line1": "1 66827U 25280G   25357.88284674  .00049748  00000+0  80579-3 0  9998", "line2": "2 66827  70.0005 167.8818 0003354 272.7571  87.3232 15.52536347  4660"}}, "geometry": {"type": "Point", "coordinates": [1.8062606638220529, -35.24460669781674]}}, {"type": "Feature", "properties": {"norad_id": 66828, "name": "STARLINK-35982", "group": "last-30-days", "lat": -38.74045764161466, "lon": 3.879681246563174, "alt_km": 413.5054008162124, "timestamp": "2025-12-24T05:51:18.326330+00:00", "meta": {"OBJECT_NAME": "STARLINK-35982", "OBJECT_ID": "2025-280H", "EPOCH": "2025-12-23T21:10:18.673248", "MEAN_MOTION": 15.52552983, "ECCENTRICITY": 0.00035587, "INCLINATION": 70.0002, "RA_OF_ASC_NODE": 167.8792, "ARG_OF_PERICENTER": 275.2889, "MEAN_ANOMALY": 84.7892, "EPHEMERIS_TYPE": 0, "CLASSIFICATION_TYPE": "U", "NORAD_CAT_ID": 66828, "ELEMENT_SET_NO": 999, "REV_AT_EPOCH": 466, "BSTAR": 0.0015758859, "MEAN_MOTION_DOT": 0.0009811, "MEAN_MOTION_DDOT": 0}, "tle": {"line1": "1 66828U 25280H   25357.88216057  .00098110  00000+0  15759-2 0  9993", "line2": "2 66828  70.0002 167.8792 0003558 275.2889  84.7892 15.52552983  4662"}}, "geometry": {"type": "Point", "coordinates": [3.879681246563174, -38.74045764161466]}}]}